SIRION PATHFINDER-2     
1 43759U 18099B   26136.59787987  .00003751  00000+0  20856-3 0  9992
2 43759  97.4276 186.4094 0010050  56.9675 303.2521 15.14240177407842
CORVUS BC4              
1 43767U 18099K   26136.29721426  .00002967  00000+0  17527-3 0  9993
2 43767  97.4091 180.2137 0010050 108.9306 251.3015 15.12216992407583
M2 PATHFINDER           
1 45727U 20037E   26136.59022677  .00001362  00000+0  10174-3 0  9990
2 45727  97.8163 327.4690 0009937 257.9689 102.0423 15.04530187320748
NETSAT-4                
1 46504U 20068U   26136.48369433  .00015453  00000+0  35518-3 0  9995
2 46504  97.8609 142.2055 0007542  81.1857 279.0243 15.42749494310883
NETSAT-3                
1 46505U 20068V   26136.53005619  .00015178  00000+0  36340-3 0  9993
2 46505  97.8658 140.5134 0007523  93.9018 266.3088 15.41523557310803
NETSAT-1                
1 46506U 20068W   26136.43788382  .00011719  00000+0  36051-3 0  9994
2 46506  97.8745 135.1115 0006939 113.4383 246.7589 15.33822434310437
NETSAT-2                
1 46507U 20068X   26136.17550802  .00019254  00000+0  41580-3 0  9995
2 46507  97.8626 141.6591 0006259 103.8094 256.3850 15.44564228310796
GREENCUBE (IO-117)      
1 53109U 22080E   26136.43447080 -.00000003  00000+0  00000+0 0  9990
2 53109  70.1434 309.2922 0008816 296.9744  63.0015  6.42583311 90029
SITRO-AIS 5 (KATYS)     
1 57176U 23091L   26136.59237058  .00010418  00000+0  37553-3 0  9997
2 57176  97.5080 200.2073 0011053 206.1606 153.9076 15.28679005159517
SITRO-AIS 6 (CHIRKIN)   
1 57192U 23091AC  26136.63106313  .00008114  00000+0  32467-3 0  9998
2 57192  97.5087 199.5292 0011207 209.4748 150.5859 15.25292433159479
SITRO-AIS 8 (ANOKHIN)   
1 57193U 23091AD  26136.59784623  .00012600  00000+0  41952-3 0  9994
2 57193  97.5074 201.6767 0010387 201.4964 158.5842 15.31221224159611
SITRO-AIS 7 (FARTUSHNIY)
1 57194U 23091AE  26136.62791414  .00007749  00000+0  31294-3 0  9991
2 57194  97.5085 199.3671 0011033 210.4667 149.5931 15.24996552159467
SITRO-AIS 10 (BURDAEV)  
1 57199U 23091AK  26136.62845341  .00016701  00000+0  45784-3 0  9992
2 57199  97.5098 206.4456 0007366 173.8701 186.2635 15.37342599159911
SITRO-AIS 9 (SHCHUKIN)  
1 57201U 23091AM  26136.58012320  .00016897  00000+0  46995-3 0  9995
2 57201  97.5096 206.1501 0007593 174.7866 185.3459 15.36887600159892
SITRO-AIS 12 (SMIRENNIY)
1 57204U 23091AQ  26136.57665207  .00016508  00000+0  45506-3 0  9991
2 57204  97.5109 206.5941 0007386 168.8093 191.3317 15.37172032159918
SITRO-AIS 11 (SHEFFER)  
1 57208U 23091AU  26136.46833030  .00017709  00000+0  48186-3 0  9995
2 57208  97.5107 206.7108 0007278 168.6423 191.4987 15.37561776159913
SITRO-AIS 25            
1 59066U 24039R   26136.61644495  .00003968  00000+0  30859-3 0  9994
2 59066  95.3921 213.4006 0147392  78.7631 283.0119 14.93282164120019
SITRO-AIS 26            
1 59067U 24039S   26136.61356286  .00004061  00000+0  31723-3 0  9999
2 59067  95.3921 213.3028 0147696  79.3022 282.4795 14.93085185120007
SITRO-AIS 27            
1 59068U 24039T   26136.59258690  .00003249  00000+0  25218-3 0  9996
2 59068  95.3925 213.5456 0146718  78.0552 283.7079 14.93496077120024
SITRO-AIS 28            
1 59071U 24039U   26136.50376047  .00004072  00000+0  31501-3 0  9995
2 59071  95.3928 213.5299 0146795  78.2363 283.5288 14.93532655120015
GRBBETA                 
1 60237U 24128C   26136.02849504  .00002788  00000+0  19903-3 0  9994
2 60237  61.9902 329.0722 0045004 128.0351 232.4817 15.06357396101425
OOV-CUBE (TUBSAT-30)    
1 60240U 24128F   26136.04836897  .00001460  00000+0  12232-3 0  9995
2 60240  61.9948 337.6259 0048616 126.7646 233.7923 15.02598646101280
ROBUSTA-3A (MEDITERRAN*)
1 60243U 24128J   26136.51119880  .00006244  00000+0  37446-3 0  9995
2 60243  61.9865 320.2188 0045607 122.0674 238.4862 15.11142991101638
LASARSAT                
1 62391U 24247Q   26136.23614122  .00028867  00000+0  61853-3 0  9995
2 62391  44.9749  81.4658 0005040 144.8918 215.2304 15.44289693 78379
CROCUBE                 
1 62394U 24247T   26135.55919162  .00022265  00000+0  45446-3 0  9990
2 62394  44.9721  83.0806 0004663 142.7008 217.4206 15.45851171 78295
FORESAIL-1 PRIME        
1 66778U 25276DS  26136.16936858  .00003477  00000+0  17240-3 0  9997
2 66778  97.4210 210.0321 0002109 176.1142 184.0109 15.18387157 25547
KNACKSAT-2              
1 67683U 98067XZ  26136.16068756  .00037994  00000+0  51786-3 0  9998
2 67683  51.6288  95.2036 0012416  80.9283 279.3113 15.57054590 15284
